FLOCK 4Q-11             
1 58273U 23174T   26065.20076210  .00028763  00000+0  61138-3 0  9996
2 58273  97.3908 151.7485 0007633 167.4332 192.7109 15.44930485129665
FLOCK 4Q-36             
1 58274U 23174U   26065.19041249  .00029846  00000+0  51522-3 0  9998
2 58274  97.3892 154.3669 0007717 157.2582 202.9013 15.50931744129831
FLOCK 4Q-12             
1 58275U 23174V   26065.20020447  .00083206  00000+0  14030-2 0  9990
2 58275  97.3886 154.2601 0005898 165.2523 194.8902 15.51363462129857
FLOCK 4Q-28             
1 58280U 23174AA  26065.20716704  .00034616  00000+0  64387-3 0  9996
2 58280  97.3911 153.5054 0007237 163.3692 196.7797 15.48780415129772
FLOCK 4Q-27             
1 58282U 23174AC  26065.20298064  .00036212  00000+0  67380-3 0  9992
2 58282  97.3858 153.0434 0006651 159.6050 200.5468 15.48765871129785
FLOCK 4Q-26             
1 58284U 23174AE  26065.18143280  .00036456  00000+0  63650-3 0  9996
2 58284  97.3907 154.4443 0007229 161.6703 198.4811 15.50575935129833
FLOCK 4Q-31             
1 58285U 23174AF  26065.21157784  .00044152  00000+0  78277-3 0  9998
2 58285  97.3951 154.1175 0007779 163.3849 196.7659 15.50095901129798
FLOCK 4Q-30             
1 58286U 23174AG  26065.20003914  .00040584  00000+0  71446-3 0  9999
2 58286  97.3952 154.2861 0007527 160.3815 199.7728 15.50316802129802
PELICAN-1               
1 58296U 23174AS  26064.86046389  .00081652  00000+0  87909-3 0  9996
2 58296  97.4014 159.4340 0009168 253.4068 106.6184 15.63402208129969
FLOCK 4Q-25             
1 58303U 23174AZ  26065.18722560  .00049394  00000+0  70409-3 0  9997
2 58303  97.3868 155.1299 0005320 146.4273 213.7319 15.56153170129924
FLOCK 4Q-29             
1 58304U 23174BA  26065.22677986  .00037942  00000+0  69356-3 0  9999
2 58304  97.3939 153.9128 0007830 151.8522 208.3154 15.49255501129780
FLOCK 4Q-22             
1 58306U 23174BC  26065.19291975  .00041465  00000+0  69164-3 0  9999
2 58306  97.3854 154.0508 0006617 156.0131 204.1431 15.51841576129853
FLOCK 4Q-23             
1 58307U 23174BD  26065.28563102  .00050340  00000+0  74891-3 0  9999
2 58307  97.3963 155.6878 0006912 151.8342 208.3288 15.54971010129909
FLOCK 4Q-33             
1 58308U 23174BE  26065.17718428  .00037573  00000+0  64767-3 0  9995
2 58308  97.3888 153.9740 0007487 145.6922 214.4815 15.50928963129839
FLOCK 4Q-35             
1 58309U 23174BF  26065.22628132  .00039089  00000+0  69812-3 0  9994
2 58309  97.3901 154.1940 0008245 158.2694 201.8908 15.49909092129822
FLOCK 4Q-34             
1 58316U 23174BN  26065.23280766  .00052520  00000+0  77533-3 0  9994
2 58316  97.3866 155.0356 0006685 153.3887 206.7712 15.55174817129909
