[{"OBJECT_NAME":"FLOCK 4Q-11","OBJECT_ID":"2023-174T","EPOCH":"2026-03-06T04:49:05.845440","MEAN_MOTION":15.44930485,"ECCENTRICITY":0.0007633,"INCLINATION":97.3908,"RA_OF_ASC_NODE":151.7485,"ARG_OF_PERICENTER":167.4332,"MEAN_ANOMALY":192.7109,"EPHEMERIS_TYPE":0,"CLASSIFICATION_TYPE":"U","NORAD_CAT_ID":58273,"ELEMENT_SET_NO":999,"REV_AT_EPOCH":12966,"BSTAR":0.00061138125,"MEAN_MOTION_DOT":0.00028763,"MEAN_MOTION_DDOT":0},{"OBJECT_NAME":"FLOCK 4Q-36","OBJECT_ID":"2023-174U","EPOCH":"2026-03-06T04:34:11.639136","MEAN_MOTION":15.50931744,"ECCENTRICITY":0.00077173,"INCLINATION":97.3892,"RA_OF_ASC_NODE":154.3669,"ARG_OF_PERICENTER":157.2582,"MEAN_ANOMALY":202.9013,"EPHEMERIS_TYPE":0,"CLASSIFICATION_TYPE":"U","NORAD_CAT_ID":58274,"ELEMENT_SET_NO":999,"REV_AT_EPOCH":12983,"BSTAR":0.00051522206,"MEAN_MOTION_DOT":0.00029846,"MEAN_MOTION_DDOT":0},{"OBJECT_NAME":"FLOCK 4Q-12","OBJECT_ID":"2023-174V","EPOCH":"2026-03-06T04:48:17.666208","MEAN_MOTION":15.51363462,"ECCENTRICITY":0.0005898,"INCLINATION":97.3886,"RA_OF_ASC_NODE":154.2601,"ARG_OF_PERICENTER":165.2523,"MEAN_ANOMALY":194.8902,"EPHEMERIS_TYPE":0,"CLASSIFICATION_TYPE":"U","NORAD_CAT_ID":58275,"ELEMENT_SET_NO":999,"REV_AT_EPOCH":12985,"BSTAR":0.0014029542,"MEAN_MOTION_DOT":0.00083206,"MEAN_MOTION_DDOT":0},{"OBJECT_NAME":"FLOCK 4Q-28","OBJECT_ID":"2023-174AA","EPOCH":"2026-03-06T04:58:19.232256","MEAN_MOTION":15.48780415,"ECCENTRICITY":0.00072377,"INCLINATION":97.3911,"RA_OF_ASC_NODE":153.5054,"ARG_OF_PERICENTER":163.3692,"MEAN_ANOMALY":196.7797,"EPHEMERIS_TYPE":0,"CLASSIFICATION_TYPE":"U","NORAD_CAT_ID":58280,"ELEMENT_SET_NO":999,"REV_AT_EPOCH":12977,"BSTAR":0.00064387231,"MEAN_MOTION_DOT":0.00034616,"MEAN_MOTION_DDOT":0},{"OBJECT_NAME":"FLOCK 4Q-27","OBJECT_ID":"2023-174AC","EPOCH":"2026-03-06T04:52:17.527296","MEAN_MOTION":15.48765871,"ECCENTRICITY":0.00066514,"INCLINATION":97.3858,"RA_OF_ASC_NODE":153.0434,"ARG_OF_PERICENTER":159.605,"MEAN_ANOMALY":200.5468,"EPHEMERIS_TYPE":0,"CLASSIFICATION_TYPE":"U","NORAD_CAT_ID":58282,"ELEMENT_SET_NO":999,"REV_AT_EPOCH":12978,"BSTAR":0.00067380052,"MEAN_MOTION_DOT":0.00036212,"MEAN_MOTION_DDOT":0},{"OBJECT_NAME":"FLOCK 4Q-26","OBJECT_ID":"2023-174AE","EPOCH":"2026-03-06T04:21:15.793920","MEAN_MOTION":15.50575935,"ECCENTRICITY":0.0007229,"INCLINATION":97.3907,"RA_OF_ASC_NODE":154.4443,"ARG_OF_PERICENTER":161.6703,"MEAN_ANOMALY":198.4811,"EPHEMERIS_TYPE":0,"CLASSIFICATION_TYPE":"U","NORAD_CAT_ID":58284,"ELEMENT_SET_NO":999,"REV_AT_EPOCH":12983,"BSTAR":0.00063649715,"MEAN_MOTION_DOT":0.00036456,"MEAN_MOTION_DDOT":0},{"OBJECT_NAME":"FLOCK 4Q-31","OBJECT_ID":"2023-174AF","EPOCH":"2026-03-06T05:04:40.325376","MEAN_MOTION":15.50095901,"ECCENTRICITY":0.0007779,"INCLINATION":97.3951,"RA_OF_ASC_NODE":154.1175,"ARG_OF_PERICENTER":163.3849,"MEAN_ANOMALY":196.7659,"EPHEMERIS_TYPE":0,"CLASSIFICATION_TYPE":"U","NORAD_CAT_ID":58285,"ELEMENT_SET_NO":999,"REV_AT_EPOCH":12979,"BSTAR":0.00078276819,"MEAN_MOTION_DOT":0.00044152,"MEAN_MOTION_DDOT":0},{"OBJECT_NAME":"FLOCK 4Q-30","OBJECT_ID":"2023-174AG","EPOCH":"2026-03-06T04:48:03.381696","MEAN_MOTION":15.50316802,"ECCENTRICITY":0.00075279,"INCLINATION":97.3952,"RA_OF_ASC_NODE":154.2861,"ARG_OF_PERICENTER":160.3815,"MEAN_ANOMALY":199.7728,"EPHEMERIS_TYPE":0,"CLASSIFICATION_TYPE":"U","NORAD_CAT_ID":58286,"ELEMENT_SET_NO":999,"REV_AT_EPOCH":12980,"BSTAR":0.00071445562,"MEAN_MOTION_DOT":0.00040584,"MEAN_MOTION_DDOT":0},{"OBJECT_NAME":"PELICAN-1","OBJECT_ID":"2023-174AS","EPOCH":"2026-03-05T20:39:04.080096","MEAN_MOTION":15.63402208,"ECCENTRICITY":0.00091681,"INCLINATION":97.4014,"RA_OF_ASC_NODE":159.434,"ARG_OF_PERICENTER":253.4068,"MEAN_ANOMALY":106.6184,"EPHEMERIS_TYPE":0,"CLASSIFICATION_TYPE":"U","NORAD_CAT_ID":58296,"ELEMENT_SET_NO":999,"REV_AT_EPOCH":12996,"BSTAR":0.00087909362,"MEAN_MOTION_DOT":0.00081652,"MEAN_MOTION_DDOT":0},{"OBJECT_NAME":"FLOCK 4Q-25","OBJECT_ID":"2023-174AZ","EPOCH":"2026-03-06T04:29:36.291840","MEAN_MOTION":15.5615317,"ECCENTRICITY":0.00053209,"INCLINATION":97.3868,"RA_OF_ASC_NODE":155.1299,"ARG_OF_PERICENTER":146.4273,"MEAN_ANOMALY":213.7319,"EPHEMERIS_TYPE":0,"CLASSIFICATION_TYPE":"U","NORAD_CAT_ID":58303,"ELEMENT_SET_NO":999,"REV_AT_EPOCH":12992,"BSTAR":0.00070409048,"MEAN_MOTION_DOT":0.00049394,"MEAN_MOTION_DDOT":0},{"OBJECT_NAME":"FLOCK 4Q-29","OBJECT_ID":"2023-174BA","EPOCH":"2026-03-06T05:26:33.779904","MEAN_MOTION":15.49255501,"ECCENTRICITY":0.00078305,"INCLINATION":97.3939,"RA_OF_ASC_NODE":153.9128,"ARG_OF_PERICENTER":151.8522,"MEAN_ANOMALY":208.3154,"EPHEMERIS_TYPE":0,"CLASSIFICATION_TYPE":"U","NORAD_CAT_ID":58304,"ELEMENT_SET_NO":999,"REV_AT_EPOCH":12978,"BSTAR":0.00069356386,"MEAN_MOTION_DOT":0.00037942,"MEAN_MOTION_DDOT":0},{"OBJECT_NAME":"FLOCK 4Q-22","OBJECT_ID":"2023-174BC","EPOCH":"2026-03-06T04:37:48.266400","MEAN_MOTION":15.51841576,"ECCENTRICITY":0.0006617,"INCLINATION":97.3854,"RA_OF_ASC_NODE":154.0508,"ARG_OF_PERICENTER":156.0131,"MEAN_ANOMALY":204.1431,"EPHEMERIS_TYPE":0,"CLASSIFICATION_TYPE":"U","NORAD_CAT_ID":58306,"ELEMENT_SET_NO":999,"REV_AT_EPOCH":12985,"BSTAR":0.00069163989,"MEAN_MOTION_DOT":0.00041465,"MEAN_MOTION_DDOT":0},{"OBJECT_NAME":"FLOCK 4Q-23","OBJECT_ID":"2023-174BD","EPOCH":"2026-03-06T06:51:18.520128","MEAN_MOTION":15.5497101,"ECCENTRICITY":0.00069126,"INCLINATION":97.3963,"RA_OF_ASC_NODE":155.6878,"ARG_OF_PERICENTER":151.8342,"MEAN_ANOMALY":208.3288,"EPHEMERIS_TYPE":0,"CLASSIFICATION_TYPE":"U","NORAD_CAT_ID":58307,"ELEMENT_SET_NO":999,"REV_AT_EPOCH":12990,"BSTAR":0.00074890857,"MEAN_MOTION_DOT":0.0005034,"MEAN_MOTION_DDOT":0},{"OBJECT_NAME":"FLOCK 4Q-33","OBJECT_ID":"2023-174BE","EPOCH":"2026-03-06T04:15:08.721792","MEAN_MOTION":15.50928963,"ECCENTRICITY":0.00074877,"INCLINATION":97.3888,"RA_OF_ASC_NODE":153.974,"ARG_OF_PERICENTER":145.6922,"MEAN_ANOMALY":214.4815,"EPHEMERIS_TYPE":0,"CLASSIFICATION_TYPE":"U","NORAD_CAT_ID":58308,"ELEMENT_SET_NO":999,"REV_AT_EPOCH":12983,"BSTAR":0.00064767011,"MEAN_MOTION_DOT":0.00037573,"MEAN_MOTION_DDOT":0},{"OBJECT_NAME":"FLOCK 4Q-35","OBJECT_ID":"2023-174BF","EPOCH":"2026-03-06T05:25:50.706048","MEAN_MOTION":15.49909092,"ECCENTRICITY":0.00082456,"INCLINATION":97.3901,"RA_OF_ASC_NODE":154.194,"ARG_OF_PERICENTER":158.2694,"MEAN_ANOMALY":201.8908,"EPHEMERIS_TYPE":0,"CLASSIFICATION_TYPE":"U","NORAD_CAT_ID":58309,"ELEMENT_SET_NO":999,"REV_AT_EPOCH":12982,"BSTAR":0.00069811753,"MEAN_MOTION_DOT":0.00039089,"MEAN_MOTION_DDOT":0},{"OBJECT_NAME":"FLOCK 4Q-34","OBJECT_ID":"2023-174BN","EPOCH":"2026-03-06T05:35:14.581824","MEAN_MOTION":15.55174817,"ECCENTRICITY":0.00066855,"INCLINATION":97.3866,"RA_OF_ASC_NODE":155.0356,"ARG_OF_PERICENTER":153.3887,"MEAN_ANOMALY":206.7712,"EPHEMERIS_TYPE":0,"CLASSIFICATION_TYPE":"U","NORAD_CAT_ID":58316,"ELEMENT_SET_NO":999,"REV_AT_EPOCH":12990,"BSTAR":0.00077532869,"MEAN_MOTION_DOT":0.0005252,"MEAN_MOTION_DDOT":0}]
